

*******************************************************************************
Ephemeris / WWW_USER Tue May 30 06:46:32 2023 Pasadena, USA      / Horizons    
*******************************************************************************
Target body name: Uranus (799)                    {source: ura116}
Center body name: Sun (10)                        {source: ura116}
Center-site name: BODYCENTRIC
*******************************************************************************
Start time      : A.D. 1980-Jan-01 00:00:00.0000 UT      
Stop  time      : A.D. 2023-Jan-01 00:00:00.0000 UT      
Step-size       : 1440 minutes
*******************************************************************************
Target pole/equ : IAU_URANUS                      {East-longitude positive}
Target radii    : 25559.0, 25559.0, 24973.0 km    {Equator_a, b, pole_c}       
Center geodetic : 0.0, 0.0, -6.96E5               {E-lon(deg),Lat(deg),Alt(km)}
Center cylindric: 0.0, 0.0, 0.0                   {E-lon(deg),Dxy(km),Dz(km)}
Center pole/equ : IAU_SUN                         {East-longitude positive}
Center radii    : 696000.0, 696000.0, 696000.0 km {Equator_a, b, pole_c}       
Target primary  : Sun
Vis. interferer : None
Rel. light bend : Sun                             {source: ura116}
Rel. lght bnd GM: 1.3271E+11 km^3/s^2                                          
Atmos refraction: NO (AIRLESS)
RA format       : DEG
Time format     : CAL 
Calendar mode   : Gregorian
EOP file        : eop.230528.p230821                                           
EOP coverage    : DATA-BASED 1962-JAN-20 TO 2023-MAY-28. PREDICTS-> 2023-AUG-20
Units conversion: 1 au= 149597870.700 km, c= 299792.458 km/s, 1 day= 86400.0 s 
Table cut-offs 1: Elevation (-90.0deg=NO ),Airmass     n.a.    , Daylight (NO )
Table cut-offs 2: Solar elongation (  0.0,180.0=NO ),Local Hour Angle( 0.0=NO )
Table cut-offs 3: RA/DEC angular rate (     0.0=NO )                           
Table format    : Comma Separated Values (spreadsheet)
*******************************************************************************
 Date__(UT)__HR:MN, , , R.A._(ICRF), DEC_(ICRF),             delta,     deldot,
*******************************************************************************
$$SOE
 2019-Sep-09 00:00, , ,    31.72226,   12.31231,  19.8324945179288, -0.2084169,
 2019-Sep-10 00:00, , ,    31.73277,   12.31613,  19.8323741429890, -0.2084852,
 2019-Sep-11 00:00, , ,    31.74329,   12.31994,  19.8322536508543, -0.2087402,
 2019-Sep-12 00:00, , ,    31.75380,   12.32375,  19.8321330990115, -0.2086992,
 2019-Sep-13 00:00, , ,    31.76432,   12.32756,  19.8320125522325, -0.2087804,
 2019-Sep-14 00:00, , ,    31.77484,   12.33137,  19.8318919412401, -0.2088350,
 2019-Sep-15 00:00, , ,    31.78535,   12.33519,  19.8317713493562, -0.2087932,
 2019-Sep-16 00:00, , ,    31.79587,   12.33900,  19.8316507540179, -0.2087882,
 2019-Sep-17 00:00, , ,    31.80639,   12.34281,  19.8315302266819, -0.2085766,
 2019-Sep-18 00:00, , ,    31.81691,   12.34662,  19.8314097594625, -0.2086604,
 2019-Sep-19 00:00, , ,    31.82743,   12.35043,  19.8312891995593, -0.2087902,
 2019-Sep-20 00:00, , ,    31.83795,   12.35424,  19.8311686121435, -0.2088144,
 2019-Sep-21 00:00, , ,    31.84847,   12.35805,  19.8310479572535, -0.2089936,
 2019-Sep-22 00:00, , ,    31.85899,   12.36185,  19.8309272432685, -0.2090243,
 2019-Sep-23 00:00, , ,    31.86951,   12.36566,  19.8308064815416, -0.2091944,
 2019-Sep-24 00:00, , ,    31.88003,   12.36947,  19.8306856315611, -0.2092182,
 2019-Sep-25 00:00, , ,    31.89055,   12.37328,  19.8305648552200, -0.2090540,
 2019-Sep-26 00:00, , ,    31.90107,   12.37709,  19.8304441020792, -0.2091229,
 2019-Sep-27 00:00, , ,    31.91159,   12.38089,  19.8303233239896, -0.2090970,
 2019-Sep-28 00:00, , ,    31.92212,   12.38470,  19.8302025430332, -0.2091899,
 2019-Sep-29 00:00, , ,    31.93264,   12.38851,  19.8300817051605, -0.2092204,
 2019-Sep-30 00:00, , ,    31.94316,   12.39231,  19.8299608930758, -0.2091823,
 2019-Oct-01 00:00, , ,    31.95369,   12.39612,  19.8298400164206, -0.2093976,
 2019-Oct-02 00:00, , ,    31.96421,   12.39992,  19.8297190787266, -0.2093533,
 2019-Oct-03 00:00, , ,    31.97474,   12.40373,  19.8295981928255, -0.2093048,
 2019-Oct-04 00:00, , ,    31.98526,   12.40753,  19.8294772991446, -0.2093054,
 2019-Oct-05 00:00, , ,    31.99579,   12.41134,  19.8293564278462, -0.2093039,
 2019-Oct-06 00:00, , ,    32.00632,   12.41514,  19.8292354848409, -0.2095162,
 2019-Oct-07 00:00, , ,    32.01684,   12.41895,  19.8291144723703, -0.2094957,
 2019-Oct-08 00:00, , ,    32.02737,   12.42275,  19.8289934649427, -0.2095972,
 2019-Oct-09 00:00, , ,    32.03790,   12.42655,  19.8288723483506, -0.2097862,
 2019-Oct-10 00:00, , ,    32.04843,   12.43035,  19.8287511916684, -0.2097674,
 2019-Oct-11 00:00, , ,    32.05896,   12.43416,  19.8286300257637, -0.2098003,
 2019-Oct-12 00:00, , ,    32.06949,   12.43796,  19.8285089001879, -0.2096201,
 2019-Oct-13 00:00, , ,    32.08002,   12.44176,  19.8283878619868, -0.2095967,
 2019-Oct-14 00:00, , ,    32.09055,   12.44556,  19.8282667706362, -0.2096861,
 2019-Oct-15 00:00, , ,    32.10108,   12.44936,  19.8281456930362, -0.2096046,
 2019-Oct-16 00:00, , ,    32.11161,   12.45316,  19.8280246061587, -0.2097450,
 2019-Oct-17 00:00, , ,    32.12214,   12.45696,  19.8279034369155, -0.2098292,
 2019-Oct-18 00:00, , ,    32.13267,   12.46076,  19.8277822088638, -0.2100046,
 2019-Oct-19 00:00, , ,    32.14321,   12.46456,  19.8276608683597, -0.2101290,
 2019-Oct-20 00:00, , ,    32.15374,   12.46836,  19.8275395543959, -0.2099821,
 2019-Oct-21 00:00, , ,    32.16427,   12.47216,  19.8274182600188, -0.2100755,
 2019-Oct-22 00:00, , ,    32.17481,   12.47596,  19.8272969173476, -0.2100811,
 2019-Oct-23 00:00, , ,    32.18534,   12.47976,  19.8271756005430, -0.2100715,
 2019-Oct-24 00:00, , ,    32.19588,   12.48356,  19.8270542509140, -0.2101194,
 2019-Oct-25 00:00, , ,    32.20641,   12.48735,  19.8269329127161, -0.2100847,
 2019-Oct-26 00:00, , ,    32.21695,   12.49115,  19.8268115218671, -0.2103103,
 2019-Oct-27 00:00, , ,    32.22749,   12.49495,  19.8266900373508, -0.2103141,
 2019-Oct-28 00:00, , ,    32.23802,   12.49874,  19.8265686037681, -0.2102304,
 2019-Oct-29 00:00, , ,    32.24856,   12.50254,  19.8264471675559, -0.2102776,
 2019-Oct-30 00:00, , ,    32.25910,   12.50633,  19.8263257452289, -0.2102140,
 2019-Oct-31 00:00, , ,    32.26964,   12.51013,  19.8262043054374, -0.2103357,
 2019-Nov-01 00:00, , ,    32.28018,   12.51392,  19.8260828173067, -0.2103195,
 2019-Nov-02 00:00, , ,    32.29071,   12.51772,  19.8259613535274, -0.2103722,
 2019-Nov-03 00:00, , ,    32.30125,   12.52151,  19.8258397700173, -0.2106425,
 2019-Nov-04 00:00, , ,    32.31179,   12.52531,  19.8257180913887, -0.2106885,
 2019-Nov-05 00:00, , ,    32.32234,   12.52910,  19.8255963872435, -0.2107765,
 2019-Nov-06 00:00, , ,    32.33288,   12.53289,  19.8254746640601, -0.2107002,
 2019-Nov-07 00:00, , ,    32.34342,   12.53669,  19.8253530032265, -0.2106450,
 2019-Nov-08 00:00, , ,    32.35396,   12.54048,  19.8252313121947, -0.2107266,
 2019-Nov-09 00:00, , ,    32.36450,   12.54427,  19.8251096567034, -0.2105498,
 2019-Nov-10 00:00, , ,    32.37505,   12.54806,  19.8249880578205, -0.2105898,
 2019-Nov-11 00:00, , ,    32.38559,   12.55185,  19.8248663908932, -0.2107004,
 2019-Nov-12 00:00, , ,    32.39613,   12.55564,  19.8247446778587, -0.2108215,
 2019-Nov-13 00:00, , ,    32.40668,   12.55943,  19.8246228590658, -0.2109924,
 2019-Nov-14 00:00, , ,    32.41722,   12.56322,  19.8245010190559, -0.2109088,
 2019-Nov-15 00:00, , ,    32.42777,   12.56701,  19.8243791866798, -0.2110339,
 2019-Nov-16 00:00, , ,    32.43831,   12.57080,  19.8242572720233, -0.2110956,
 2019-Nov-17 00:00, , ,    32.44886,   12.57459,  19.8241353843455, -0.2110105,
 2019-Nov-18 00:00, , ,    32.45941,   12.57838,  19.8240134949366, -0.2110728,
 2019-Nov-19 00:00, , ,    32.46995,   12.58217,  19.8238916021947, -0.2110420,
 2019-Nov-20 00:00, , ,    32.48050,   12.58596,  19.8237696725937, -0.2112316,
 2019-Nov-21 00:00, , ,    32.49105,   12.58975,  19.8236476314050, -0.2113109,
 2019-Nov-22 00:00, , ,    32.50160,   12.59353,  19.8235256235179, -0.2112232,
 2019-Nov-23 00:00, , ,    32.51215,   12.59732,  19.8234036067738, -0.2113171,
 2019-Nov-24 00:00, , ,    32.52270,   12.60111,  19.8232815705468, -0.2112551,
 2019-Nov-25 00:00, , ,    32.53325,   12.60489,  19.8231595595216, -0.2112848,
 2019-Nov-26 00:00, , ,    32.54380,   12.60868,  19.8230375336733, -0.2112439,
 2019-Nov-27 00:00, , ,    32.55435,   12.61247,  19.8229155591438, -0.2112003,
 2019-Nov-28 00:00, , ,    32.56490,   12.61625,  19.8227935010464, -0.2114793,
 2019-Nov-29 00:00, , ,    32.57545,   12.62004,  19.8226713272718, -0.2115614,
 2019-Nov-30 00:00, , ,    32.58601,   12.62382,  19.8225491222207, -0.2116603,
 2019-Dec-01 00:00, , ,    32.59656,   12.62760,  19.8224268427252, -0.2117345,
 2019-Dec-02 00:00, , ,    32.60711,   12.63139,  19.8223045664963, -0.2117235,
 2019-Dec-03 00:00, , ,    32.61767,   12.63517,  19.8221822536455, -0.2118225,
 2019-Dec-04 00:00, , ,    32.62822,   12.63896,  19.8220599601437, -0.2116258,
 2019-Dec-05 00:00, , ,    32.63877,   12.64274,  19.8219377682366, -0.2115744,
 2019-Dec-06 00:00, , ,    32.64933,   12.64652,  19.8218155396631, -0.2116753,
 2019-Dec-07 00:00, , ,    32.65989,   12.65030,  19.8216932879898, -0.2116940,
 2019-Dec-08 00:00, , ,    32.67044,   12.65408,  19.8215709749638, -0.2118540,
 2019-Dec-09 00:00, , ,    32.68100,   12.65787,  19.8214486176006, -0.2118339,
 2019-Dec-10 00:00, , ,    32.69156,   12.66165,  19.8213262564060, -0.2119540,
 2019-Dec-11 00:00, , ,    32.70211,   12.66543,  19.8212037854414, -0.2120906,
 2019-Dec-12 00:00, , ,    32.71267,   12.66921,  19.8210813242359, -0.2119801,
 2019-Dec-13 00:00, , ,    32.72323,   12.67299,  19.8209588886600, -0.2120299,
